{"type": "FeatureCollection", "features": [ {"type": "Feature", "properties": {"norad_id": 41469, "name": "IRNSS-1G", "group": "gnss", "lat": 4.439919534897884, "lon": 170.4470747053639, "alt_km": 35786.21577601614, "timestamp": "2025-12-21T20:41:08.207548+00:00", "meta": {"OBJECT_NAME": "IRNSS-1G", "OBJECT_ID": "2016-027A", "EPOCH": "2025-12-21T13:48:51.708672", "MEAN_MOTION": 1.0027579, "ECCENTRICITY": 0.0002626, "INCLINATION": 4.7561, "RA_OF_ASC_NODE": 101.8704, "ARG_OF_PERICENTER": 329.1712, "MEAN_ANOMALY": 356.0877, "EPHEMERIS_TYPE": 0, "CLASSIFICATION_TYPE": "U", "NORAD_CAT_ID": 41469, "ELEMENT_SET_NO": 999, "REV_AT_EPOCH": 3539, "BSTAR": 0, "MEAN_MOTION_DOT": -3.15e-06, "MEAN_MOTION_DDOT": 0}, "tle": {"line1": "1 41469U 16027A   25355.57559848 -.00000315  00000+0  00000+0 0  9999", "line2": "2 41469   4.7561 101.8704 0002626 329.1712 356.0877  1.00275790 35398"}}, "geometry": {"type": "Point", "coordinates": [170.4470747053639, 4.439919534897884]}}, {"type": "Feature", "properties": {"norad_id": 41549, "name": "GSAT0211 (GALILEO 14)", "group": "gnss", "lat": 38.096791248845236, "lon": 13.490654078104921, "alt_km": 23222.461251771376, "timestamp": "2025-12-21T20:41:08.207563+00:00", "meta": {"OBJECT_NAME": "GSAT0211 (GALILEO 14)", "OBJECT_ID": "2016-030A", "EPOCH": "2025-12-20T11:24:03.549312", "MEAN_MOTION": 1.70473323, "ECCENTRICITY": 0.00041244, "INCLINATION": 55.1495, "RA_OF_ASC_NODE": 226.6105, "ARG_OF_PERICENTER": 17.8253, "MEAN_ANOMALY": 342.2987, "EPHEMERIS_TYPE": 0, "CLASSIFICATION_TYPE": "U", "NORAD_CAT_ID": 41549, "ELEMENT_SET_NO": 999, "REV_AT_EPOCH": 5962, "BSTAR": 0, "MEAN_MOTION_DOT": 7.1e-07, "MEAN_MOTION_DDOT": 0}, "tle": {"line1": "1 41549U 16030A   25354.47504108  .00000071  00000+0  00000+0 0  9997", "line2": "2 41549  55.1495 226.6105 0004124  17.8253 342.2987  1.70473323 59620"}}, "geometry": {"type": "Point", "coordinates": [13.490654078104921, 38.096791248845236]}}, {"type": "Feature", "properties": {"norad_id": 41550, "name": "GSAT0210 (GALILEO 13)", "group": "gnss", "lat": -21.72189948247385, "lon": -149.52379393374457, "alt_km": 23225.78360665158, "timestamp": "2025-12-21T20:41:08.207575+00:00", "meta": {"OBJECT_NAME": "GSAT0210 (GALILEO 13)", "OBJECT_ID": "2016-030B", "EPOCH": "2025-12-18T23:20:38.714784", "MEAN_MOTION": 1.70473668, "ECCENTRICITY": 7.917e-05, "INCLINATION": 55.1496, "RA_OF_ASC_NODE": 226.6499, "ARG_OF_PERICENTER": 227.6007, "MEAN_ANOMALY": 132.5002, "EPHEMERIS_TYPE": 0, "CLASSIFICATION_TYPE": "U", "NORAD_CAT_ID": 41550, "ELEMENT_SET_NO": 999, "REV_AT_EPOCH": 5959, "BSTAR": 0, "MEAN_MOTION_DOT": 6.5e-07, "MEAN_MOTION_DDOT": 0}, "tle": {"line1": "1 41550U 16030B   25352.97267031  .00000065  00000+0  00000+0 0  9996", "line2": "2 41550  55.1496 226.6499 0000791 227.6007 132.5002  1.70473668 59599"}}, "geometry": {"type": "Point", "coordinates": [-149.52379393374457, -21.72189948247385]}}, {"type": "Feature", "properties": {"norad_id": 41586, "name": "BEIDOU-2 G7 (C03)", "group": "gnss", "lat": 1.7822949083485427, "lon": 151.4616317877344, "alt_km": 35782.49522249882, "timestamp": "2025-12-21T20:41:08.207586+00:00", "meta": {"OBJECT_NAME": "BEIDOU-2 G7 (C03)", "OBJECT_ID": "2016-037A", "EPOCH": "2025-12-19T15:57:04.317984", "MEAN_MOTION": 1.00271972, "ECCENTRICITY": 0.0005143, "INCLINATION": 1.7733, "RA_OF_ASC_NODE": 67.8469, "ARG_OF_PERICENTER": 2.9481, "MEAN_ANOMALY": 7.4377, "EPHEMERIS_TYPE": 0, "CLASSIFICATION_TYPE": "U", "NORAD_CAT_ID": 41586, "ELEMENT_SET_NO": 999, "REV_AT_EPOCH": 509, "BSTAR": 0, "MEAN_MOTION_DOT": -3.3e-06, "MEAN_MOTION_DDOT": 0}, "tle": {"line1": "1 41586U 16037A   25353.66463331 -.00000330  00000+0  00000+0 0  9996", "line2": "2 41586   1.7733  67.8469 0005143   2.9481   7.4377  1.00271972  5095"}}, "geometry": {"type": "Point", "coordinates": [151.4616317877344, 1.7822949083485427]}}, {"type": "Feature", "properties": {"norad_id": 41589, "name": "EUTELSAT 117 WEST B (WAAS/PRN 131)", "group": "gnss", "lat": 0.017629184241440173, "lon": -76.03891329151092, "alt_km": 35785.15245872177, "timestamp": "2025-12-21T20:41:08.207597+00:00", "meta": {"OBJECT_NAME": "EUTELSAT 117 WEST B (WAAS/PRN 131)", "OBJECT_ID": "2016-038B", "EPOCH": "2025-12-21T06:20:43.353888", "MEAN_MOTION": 1.00270341, "ECCENTRICITY": 3.447e-05, "INCLINATION": 0.0057, "RA_OF_ASC_NODE": 161.4405, "ARG_OF_PERICENTER": 148.4194, "MEAN_ANOMALY": 118.4213, "EPHEMERIS_TYPE": 0, "CLASSIFICATION_TYPE": "U", "NORAD_CAT_ID": 41589, "ELEMENT_SET_NO": 999, "REV_AT_EPOCH": 3487, "BSTAR": 0, "MEAN_MOTION_DOT": 1.1e-07, "MEAN_MOTION_DDOT": 0}, "tle": {"line1": "1 41589U 16038B   25355.26439067  .00000011  00000+0  00000+0 0  9992", "line2": "2 41589   0.0057 161.4405 0000344 148.4194 118.4213  1.00270341 34874"}}, "geometry": {"type": "Point", "coordinates": [-76.03891329151092, 0.017629184241440173]}}, {"type": "Feature", "properties": {"norad_id": 41859, "name": "GSAT0207 (GALILEO 15)", "group": "gnss", "lat": 14.359804711338896, "lon": -84.17431800041052, "alt_km": 23226.958816499835, "timestamp": "2025-12-21T20:41:08.207607+00:00", "meta": {"OBJECT_NAME": "GSAT0207 (GALILEO 15)", "OBJECT_ID": "2016-069A", "EPOCH": "2025-12-20T10:10:36.025248", "MEAN_MOTION": 1.7047449, "ECCENTRICITY": 0.00023887, "INCLINATION": 55.3864, "RA_OF_ASC_NODE": 106.0375, "ARG_OF_PERICENTER": 318.3578, "MEAN_ANOMALY": 41.5905, "EPHEMERIS_TYPE": 0, "CLASSIFICATION_TYPE": "U", "NORAD_CAT_ID": 41859, "ELEMENT_SET_NO": 999, "REV_AT_EPOCH": 5635, "BSTAR": 0, "MEAN_MOTION_DOT": -2e-08, "MEAN_MOTION_DDOT": 0}, "tle": {"line1": "1 41859U 16069A   25354.42402807 -.00000002  00000+0  00000+0 0  9996", "line2": "2 41859  55.3864 106.0375 0002388 318.3578  41.5905  1.70474490 56357"}}, "geometry": {"type": "Point", "coordinates": [-84.17431800041052, 14.359804711338896]}}, {"type": "Feature", "properties": {"norad_id": 41860, "name": "GSAT0212 (GALILEO 16)", "group": "gnss", "lat": -51.64548404928347, "lon": -13.36815273050759, "alt_km": 23231.402172622154, "timestamp": "2025-12-21T20:41:08.207619+00:00", "meta": {"OBJECT_NAME": "GSAT0212 (GALILEO 16)", "OBJECT_ID": "2016-069B", "EPOCH": "2025-12-20T20:44:32.412192", "MEAN_MOTION": 1.70474703, "ECCENTRICITY": 0.00020505, "INCLINATION": 55.3843, "RA_OF_ASC_NODE": 106.0207, "ARG_OF_PERICENTER": 18.9555, "MEAN_ANOMALY": 341.0209, "EPHEMERIS_TYPE": 0, "CLASSIFICATION_TYPE": "U", "NORAD_CAT_ID": 41860, "ELEMENT_SET_NO": 999, "REV_AT_EPOCH": 5661, "BSTAR": 0, "MEAN_MOTION_DOT": 0, "MEAN_MOTION_DDOT": 0}, "tle": {"line1": "1 41860U 16069B   25354.86426403  .00000000  00000+0  00000+0 0  9991", "line2": "2 41860  55.3843 106.0207 0002050  18.9555 341.0209  1.70474703 56615"}}, "geometry": {"type": "Point", "coordinates": [-13.36815273050759, -51.64548404928347]}}, {"type": "Feature", "properties": {"norad_id": 41861, "name": "GSAT0213 (GALILEO 17)", "group": "gnss", "lat": 21.7082743839593, "lon": 121.93209474404928, "alt_km": 23221.383636592283, "timestamp": "2025-12-21T20:41:08.207630+00:00", "meta": {"OBJECT_NAME": "GSAT0213 (GALILEO 17)", "OBJECT_ID": "2016-069C", "EPOCH": "2025-12-17T17:05:43.699776", "MEAN_MOTION": 1.70474994, "ECCENTRICITY": 0.000259, "INCLINATION": 55.385, "RA_OF_ASC_NODE": 106.1156, "ARG_OF_PERICENTER": 282.1972, "MEAN_ANOMALY": 77.7328, "EPHEMERIS_TYPE": 0, "CLASSIFICATION_TYPE": "U", "NORAD_CAT_ID": 41861, "ELEMENT_SET_NO": 999, "REV_AT_EPOCH": 5642, "BSTAR": 0, "MEAN_MOTION_DOT": -9e-08, "MEAN_MOTION_DDOT": 0}, "tle": {"line1": "1 41861U 16069C   25351.71231134 -.00000009  00000+0  00000+0 0  9998", "line2": "2 41861  55.3850 106.1156 0002590 282.1972  77.7328  1.70474994 56421"}}, "geometry": {"type": "Point", "coordinates": [121.93209474404928, 21.7082743839593]}}, {"type": "Feature", "properties": {"norad_id": 41862, "name": "GSAT0214 (GALILEO 18)", "group": "gnss", "lat": -47.13248343487798, "lon": 58.00162452513684, "alt_km": 23222.705886909716, "timestamp": "2025-12-21T20:41:08.207640+00:00", "meta": {"OBJECT_NAME": "GSAT0214 (GALILEO 18)", "OBJECT_ID": "2016-069D", "EPOCH": "2025-12-21T09:04:04.029024", "MEAN_MOTION": 1.70474854, "ECCENTRICITY": 0.00016223, "INCLINATION": 55.385, "RA_OF_ASC_NODE": 106.0069, "ARG_OF_PERICENTER": 287.8422, "MEAN_ANOMALY": 72.112, "EPHEMERIS_TYPE": 0, "CLASSIFICATION_TYPE": "U", "NORAD_CAT_ID": 41862, "ELEMENT_SET_NO": 999, "REV_AT_EPOCH": 5661, "BSTAR": 0, "MEAN_MOTION_DOT": 2e-08, "MEAN_MOTION_DDOT": 0}, "tle": {"line1": "1 41862U 16069D   25355.37782441  .00000002  00000+0  00000+0 0  9999", "line2": "2 41862  55.3850 106.0069 0001622 287.8422  72.1120  1.70474854 56616"}}, "geometry": {"type": "Point", "coordinates": [58.00162452513684, -47.13248343487798]}}, {"type": "Feature", "properties": {"norad_id": 42709, "name": "SES-15 (WAAS/PRN 133)", "group": "gnss", "lat": -0.0404081365024121, "lon": -88.15581863890326, "alt_km": 35784.278162140865, "timestamp": "2025-12-21T20:41:08.207695+00:00", "meta": {"OBJECT_NAME": "SES-15 (WAAS/PRN 133)", "OBJECT_ID": "2017-026A", "EPOCH": "2025-12-20T17:45:11.037312", "MEAN_MOTION": 1.00276536, "ECCENTRICITY": 5.36e-05, "INCLINATION": 0.0196, "RA_OF_ASC_NODE": 334.827, "ARG_OF_PERICENTER": 216.7699, "MEAN_ANOMALY": 35.1349, "EPHEMERIS_TYPE": 0, "CLASSIFICATION_TYPE": "U", "NORAD_CAT_ID": 42709, "ELEMENT_SET_NO": 999, "REV_AT_EPOCH": 564, "BSTAR": 0, "MEAN_MOTION_DOT": 8.2e-07, "MEAN_MOTION_DDOT": 0}, "tle": {"line1": "1 42709U 17026A   25354.73971108  .00000082  00000+0  00000+0 0  9991", "line2": "2 42709   0.0196 334.8270 0000536 216.7699  35.1349  1.00276536  5641"}}, "geometry": {"type": "Point", "coordinates": [-88.15581863890326, -0.0404081365024121]}}]}